[{"OBJECT_NAME":"STARLINK-2735","OBJECT_ID":"2021-044AF","EPOCH":"2026-03-09T10:34:56.803872","MEAN_MOTION":15.06408567,"ECCENTRICITY":0.00018221,"INCLINATION":53.054,"RA_OF_ASC_NODE":112.7364,"ARG_OF_PERICENTER":42.6547,"MEAN_ANOMALY":317.4583,"EPHEMERIS_TYPE":0,"CLASSIFICATION_TYPE":"U","NORAD_CAT_ID":48667,"ELEMENT_SET_NO":999,"REV_AT_EPOCH":26381,"BSTAR":0.00025303201,"MEAN_MOTION_DOT":3.49e-5,"MEAN_MOTION_DDOT":0},{"OBJECT_NAME":"NEONSAT-1A","OBJECT_ID":"2026-019A","EPOCH":"2026-03-09T21:53:31.879392","MEAN_MOTION":15.0780294,"ECCENTRICITY":0.00137261,"INCLINATION":97.411,"RA_OF_ASC_NODE":192.4819,"ARG_OF_PERICENTER":167.4713,"MEAN_ANOMALY":192.686,"EPHEMERIS_TYPE":0,"CLASSIFICATION_TYPE":"U","NORAD_CAT_ID":67614,"ELEMENT_SET_NO":999,"REV_AT_EPOCH":585,"BSTAR":0.00027109929,"MEAN_MOTION_DOT":4.096e-5,"MEAN_MOTION_DDOT":0}]
